start=new Date('2022-12-07T00:00:00.000Z').valueOf();
sats=[{"CENTER_NAME":"EARTH","INCLINATION":"53.2164","COUNTRY_CODE":"US","TIME_SYSTEM":"UTC","TLE_LINE2":"2 50203  53.2164 176.2477 0003201  45.9075 314.2181 15.08835062 57317","RCS_SIZE":"LARGE","DECAY_DATE":null,"OBJECT_TYPE":"PAYLOAD","RA_OF_ASC_NODE":"176.2477","REV_AT_EPOCH":"5731","SITE":"AFWTR","PERIOD":"95.438","FILE":"3683274","TLE_LINE1":"1 50203U 21125AZ  22340.80476078  .00000987  00000-0  80134-4 0  9996","ELEMENT_SET_NO":"999","BSTAR":"0.00008013400000","MEAN_MOTION_DOT":"0.00000987","MEAN_ANOMALY":"314.2181","SEMIMAJOR_AXIS":"6917.895","MEAN_ELEMENT_THEORY":"SGP4","MEAN_MOTION_DDOT":"0.0000000000000","REF_FRAME":"TEME","NORAD_CAT_ID":"50203","PERIAPSIS":"537.546","EPHEMERIS_TYPE":"0","LAUNCH_DATE":"2021-12-18","OBJECT_ID":"2021-125AZ","GP_ID":"219697579","APOAPSIS":"541.975","OBJECT_NAME":"STARLINK-3257","EPOCH":"2022-12-06T19:18:51.331392","ECCENTRICITY":"0.00032010","CLASSIFICATION_TYPE":"U","ARG_OF_PERICENTER":"45.9075","MEAN_MOTION":"15.08835062"},{"OBJECT_NAME":"STARLINK-3254","ECCENTRICITY":"0.00029490","MEAN_MOTION":"15.08833320","CLASSIFICATION_TYPE":"U","ARG_OF_PERICENTER":"43.0502","EPOCH":"2022-12-06T22:03:07.271424","APOAPSIS":"541.806","LAUNCH_DATE":"2021-12-18","PERIAPSIS":"537.726","EPHEMERIS_TYPE":"0","OBJECT_ID":"2021-125BA","GP_ID":"219702104","MEAN_ELEMENT_THEORY":"SGP4","MEAN_MOTION_DDOT":"0.0000000000000","REF_FRAME":"TEME","NORAD_CAT_ID":"50204","MEAN_MOTION_DOT":"-0.00000559","SEMIMAJOR_AXIS":"6917.901","MEAN_ANOMALY":"317.0721","REV_AT_EPOCH":"5419","SITE":"AFWTR","RA_OF_ASC_NODE":"175.7331","ELEMENT_SET_NO":"999","TLE_LINE1":"1 50204U 21125BA  22340.91883416 -.00000559  00000-0 -16967-4 0  9997","BSTAR":"-0.00001696700000","PERIOD":"95.438","FILE":"3683373","RCS_SIZE":"LARGE","DECAY_DATE":null,"TIME_SYSTEM":"UTC","TLE_LINE2":"2 50204  53.2149 175.7331 0002949  43.0502 317.0721 15.08833320 54195","OBJECT_TYPE":"PAYLOAD","INCLINATION":"53.2149","CENTER_NAME":"EARTH","COUNTRY_CODE":"US"},{"MEAN_MOTION_DDOT":"0.0000000000000","REF_FRAME":"TEME","MEAN_ELEMENT_THEORY":"SGP4","NORAD_CAT_ID":"50205","LAUNCH_DATE":"2021-12-18","EPHEMERIS_TYPE":"0","PERIAPSIS":"537.477","GP_ID":"219697094","OBJECT_ID":"2021-125BB","APOAPSIS":"541.957","OBJECT_NAME":"STARLINK-3260","CLASSIFICATION_TYPE":"U","ARG_OF_PERICENTER":"49.7917","MEAN_MOTION":"15.08849158","ECCENTRICITY":"0.00032380","EPOCH":"2022-12-06T19:03:00.425952","INCLINATION":"53.2172","CENTER_NAME":"EARTH","COUNTRY_CODE":"US","DECAY_DATE":null,"RCS_SIZE":"LARGE","TLE_LINE2":"2 50205  53.2172 146.2886 0003238  49.7917 310.3358 15.08849158 57679","TIME_SYSTEM":"UTC","OBJECT_TYPE":"PAYLOAD","SITE":"AFWTR","REV_AT_EPOCH":"5767","RA_OF_ASC_NODE":"146.2886","TLE_LINE1":"1 50205U 21125BB  22340.79375493  .00000382  00000-0  42110-4 0  9996","BSTAR":"0.00004211000000","ELEMENT_SET_NO":"999","FILE":"3683274","PERIOD":"95.437","MEAN_MOTION_DOT":"0.00000382","SEMIMAJOR_AXIS":"6917.852","MEAN_ANOMALY":"310.3358"},{"OBJECT_TYPE":"PAYLOAD","TLE_LINE2":"2 50206  53.2168 175.7194 0003551  41.8138 318.3125 15.08825666 55193","TIME_SYSTEM":"UTC","DECAY_DATE":null,"RCS_SIZE":"LARGE","COUNTRY_CODE":"US","CENTER_NAME":"EARTH","INCLINATION":"53.2168","MEAN_ANOMALY":"318.3125","SEMIMAJOR_AXIS":"6917.924","MEAN_MOTION_DOT":"-0.00000313","FILE":"3683373","PERIOD":"95.438","BSTAR":"-0.00000148990000","TLE_LINE1":"1 50206U 21125BC  22340.92251908 -.00000313  00000-0 -14899-5 0  9996","ELEMENT_SET_NO":"999","RA_OF_ASC_NODE":"175.7194","SITE":"AFWTR","REV_AT_EPOCH":"5519","GP_ID":"219701931","OBJECT_ID":"2021-125BC","EPHEMERIS_TYPE":"0","PERIAPSIS":"537.333","LAUNCH_DATE":"2021-12-18","NORAD_CAT_ID":"50206","MEAN_MOTION_DDOT":"0.0000000000000","REF_FRAME":"TEME","MEAN_ELEMENT_THEORY":"SGP4","EPOCH":"2022-12-06T22:08:25.648512","MEAN_MOTION":"15.08825666","CLASSIFICATION_TYPE":"U","ARG_OF_PERICENTER":"41.8138","ECCENTRICITY":"0.00035510","OBJECT_NAME":"STARLINK-3258","APOAPSIS":"542.246"},{"MEAN_MOTION_DOT":"0.00001493","MEAN_ANOMALY":"318.5210","SEMIMAJOR_AXIS":"6917.902","RA_OF_ASC_NODE":"177.1837","SITE":"AFWTR","REV_AT_EPOCH":"5521","FILE":"3683274","PERIOD":"95.438","TLE_LINE1":"1 50207U 21125BD  22340.59499186  .00001493  00000-0  11193-3 0  9992","ELEMENT_SET_NO":"999","BSTAR":"0.00011193000000","TLE_LINE2":"2 50207  53.2150 177.1837 0003425  41.6042 318.5210 15.08832950 55211","TIME_SYSTEM":"UTC","RCS_SIZE":"LARGE","DECAY_DATE":null,"OBJECT_TYPE":"PAYLOAD","CENTER_NAME":"EARTH","INCLINATION":"53.2150","COUNTRY_CODE":"US","OBJECT_NAME":"STARLINK-3262","EPOCH":"2022-12-06T14:16:47.296704","ARG_OF_PERICENTER":"41.6042","CLASSIFICATION_TYPE":"U","MEAN_MOTION":"15.08832950","ECCENTRICITY":"0.00034250","APOAPSIS":"542.136","EPHEMERIS_TYPE":"0","PERIAPSIS":"537.398","LAUNCH_DATE":"2021-12-18","OBJECT_ID":"2021-125BD","GP_ID":"219698079","REF_FRAME":"TEME","MEAN_MOTION_DDOT":"0.0000000000000","MEAN_ELEMENT_THEORY":"SGP4","NORAD_CAT_ID":"50207"},{"INCLINATION":"53.2195","CENTER_NAME":"EARTH","COUNTRY_CODE":"US","DECAY_DATE":null,"RCS_SIZE":"LARGE","TIME_SYSTEM":"UTC","TLE_LINE2":"2 50803  53.2195 106.9506 0002722  48.8072 311.3155 15.08842803 50904","OBJECT_TYPE":"PAYLOAD","REV_AT_EPOCH":"5090","SITE":"AFETR","RA_OF_ASC_NODE":"106.9506","ELEMENT_SET_NO":"999","TLE_LINE1":"1 50803U 22001A   22340.64558326  .00000094  00000-0  24004-4 0  9998","BSTAR":"0.00002400400000","PERIOD":"95.437","FILE":"3683274","MEAN_MOTION_DOT":"0.00000094","SEMIMAJOR_AXIS":"6917.872","MEAN_ANOMALY":"311.3155","MEAN_ELEMENT_THEORY":"SGP4","REF_FRAME":"TEME","MEAN_MOTION_DDOT":"0.0000000000000","NORAD_CAT_ID":"50803","LAUNCH_DATE":"2022-01-06","PERIAPSIS":"537.854","EPHEMERIS_TYPE":"0","OBJECT_ID":"2022-001A","GP_ID":"219696367","APOAPSIS":"541.620","OBJECT_NAME":"STARLINK-3321","ECCENTRICITY":"0.00027220","CLASSIFICATION_TYPE":"U","ARG_OF_PERICENTER":"48.8072","MEAN_MOTION":"15.08842803","EPOCH":"2022-12-06T15:29:38.393664"},{"INCLINATION":"53.2185","CENTER_NAME":"EARTH","COUNTRY_CODE":"US","DECAY_DATE":null,"RCS_SIZE":"LARGE","TIME_SYSTEM":"UTC","TLE_LINE2":"2 50804  53.2185  96.2163 0002141  40.7172 319.3980 15.08832009 51060","OBJECT_TYPE":"PAYLOAD","REV_AT_EPOCH":"5106","SITE":"AFETR","RA_OF_ASC_NODE":"96.2163","ELEMENT_SET_NO":"999","TLE_LINE1":"1 50804U 22001B   22340.81211055 -.00001313  00000-0 -64393-4 0  9995","BSTAR":"-0.00006439300000","PERIOD":"95.438","FILE":"3683274","MEAN_MOTION_DOT":"-0.00001313","SEMIMAJOR_AXIS":"6917.905","MEAN_ANOMALY":"319.3980","MEAN_ELEMENT_THEORY":"SGP4","REF_FRAME":"TEME","MEAN_MOTION_DDOT":"0.0000000000000","NORAD_CAT_ID":"50804","LAUNCH_DATE":"2022-01-06","PERIAPSIS":"538.289","EPHEMERIS_TYPE":"0","OBJECT_ID":"2022-001B","GP_ID":"219696617","APOAPSIS":"541.251","OBJECT_NAME":"STARLINK-3323","ECCENTRICITY":"0.00021410","CLASSIFICATION_TYPE":"U","ARG_OF_PERICENTER":"40.7172","MEAN_MOTION":"15.08832009","EPOCH":"2022-12-06T19:29:26.351520"},{"GP_ID":"219697366","OBJECT_ID":"2022-001C","EPHEMERIS_TYPE":"0","PERIAPSIS":"538.347","LAUNCH_DATE":"2022-01-06","NORAD_CAT_ID":"50805","REF_FRAME":"TEME","MEAN_MOTION_DDOT":"0.0000000000000","MEAN_ELEMENT_THEORY":"SGP4","EPOCH":"2022-12-06T19:24:08.383104","CLASSIFICATION_TYPE":"U","ARG_OF_PERICENTER":"35.0745","MEAN_MOTION":"15.08832056","ECCENTRICITY":"0.00020560","OBJECT_NAME":"STARLINK-3333","APOAPSIS":"541.192","OBJECT_TYPE":"PAYLOAD","TLE_LINE2":"2 50805  53.2191  96.2290 0002056  35.0745 325.0383 15.08832056 51060","TIME_SYSTEM":"UTC","DECAY_DATE":null,"RCS_SIZE":"LARGE","COUNTRY_CODE":"US","CENTER_NAME":"EARTH","INCLINATION":"53.2191","MEAN_ANOMALY":"325.0383","SEMIMAJOR_AXIS":"6917.905","MEAN_MOTION_DOT":"-0.00000132","FILE":"3683274","PERIOD":"95.438","TLE_LINE1":"1 50805U 22001C   22340.80843036 -.00000132  00000-0  97902-5 0  9995","ELEMENT_SET_NO":"999","BSTAR":"0.00000979020000","RA_OF_ASC_NODE":"96.2290","SITE":"AFETR","REV_AT_EPOCH":"5106"},{"NORAD_CAT_ID":"50806","MEAN_ELEMENT_THEORY":"SGP4","MEAN_MOTION_DDOT":"0.0000000000000","REF_FRAME":"TEME","OBJECT_ID":"2022-001D","GP_ID":"219702255","LAUNCH_DATE":"2022-01-06","PERIAPSIS":"538.210","EPHEMERIS_TYPE":"0","APOAPSIS":"541.326","ECCENTRICITY":"0.00022520","CLASSIFICATION_TYPE":"U","MEAN_MOTION":"15.08832634","ARG_OF_PERICENTER":"47.0858","EPOCH":"2022-12-06T19:18:50.153760","OBJECT_NAME":"STARLINK-3335","COUNTRY_CODE":"US","INCLINATION":"53.2181","CENTER_NAME":"EARTH","OBJECT_TYPE":"PAYLOAD","DECAY_DATE":null,"RCS_SIZE":"LARGE","TIME_SYSTEM":"UTC","TLE_LINE2":"2 50806  53.2181  96.2213 0002252  47.0858 313.0323 15.08832634 52335","ELEMENT_SET_NO":"999","TLE_LINE1":"1 50806U 22001D   22340.80474715 -.00002706  00000-0 -15201-3 0  9990","BSTAR":"-0.00015201000000","PERIOD":"95.438","FILE":"3683382","REV_AT_EPOCH":"5233","SITE":"AFETR","RA_OF_ASC_NODE":"96.2213","SEMIMAJOR_AXIS":"6917.903","MEAN_ANOMALY":"313.0323","MEAN_MOTION_DOT":"-0.00002706"},{"SEMIMAJOR_AXIS":"6917.886","MEAN_ANOMALY":"329.1626","MEAN_MOTION_DOT":"-0.00000788","BSTAR":"-0.00003142100000","TLE_LINE1":"1 50807U 22001E   22340.59130687 -.00000788  00000-0 -31421-4 0  9995","ELEMENT_SET_NO":"999","FILE":"3683159","PERIOD":"95.438","SITE":"AFETR","REV_AT_EPOCH":"5230","RA_OF_ASC_NODE":"97.2032","OBJECT_TYPE":"PAYLOAD","RCS_SIZE":"LARGE","DECAY_DATE":null,"TLE_LINE2":"2 50807  53.2175  97.2032 0002112  30.9490 329.1626 15.08838305 52309","TIME_SYSTEM":"UTC","COUNTRY_CODE":"US","INCLINATION":"53.2175","CENTER_NAME":"EARTH","ARG_OF_PERICENTER":"30.9490","CLASSIFICATION_TYPE":"U","MEAN_MOTION":"15.08838305","ECCENTRICITY":"0.00021120","EPOCH":"2022-12-06T14:11:28.913568","OBJECT_NAME":"STARLINK-3353","APOAPSIS":"541.212","OBJECT_ID":"2022-001E","GP_ID":"219671433","LAUNCH_DATE":"2022-01-06","EPHEMERIS_TYPE":"0","PERIAPSIS":"538.290","NORAD_CAT_ID":"50807","REF_FRAME":"TEME","MEAN_MOTION_DDOT":"0.0000000000000","MEAN_ELEMENT_THEORY":"SGP4"}];
